{"type": "FeatureCollection", "features": [ {"type": "Feature", "properties": {"norad_id": 41175, "name": "GSAT0208 (GALILEO 11)", "group": "galileo", "lat": -12.729624428262373, "lon": -64.52939315342141, "alt_km": 23229.631334016733, "timestamp": "2025-12-03T15:48:03.335317+00:00", "meta": {"OBJECT_NAME": "GSAT0208 (GALILEO 11)", "OBJECT_ID": "2015-079B", "EPOCH": "2025-12-02T18:04:51.780576", "MEAN_MOTION": 1.70474153, "ECCENTRICITY": 0.00018919, "INCLINATION": 55.7052, "RA_OF_ASC_NODE": 106.6523, "ARG_OF_PERICENTER": 10.0407, "MEAN_ANOMALY": 349.9226, "EPHEMERIS_TYPE": 0, "CLASSIFICATION_TYPE": "U", "NORAD_CAT_ID": 41175, "ELEMENT_SET_NO": 999, "REV_AT_EPOCH": 6184, "BSTAR": 0, "MEAN_MOTION_DOT": 2.7e-07, "MEAN_MOTION_DDOT": 0}, "tle": {"line1": "1 41175U 15079B   25336.75337709  .00000027  00000+0  00000+0 0  9997", "line2": "2 41175  55.7052 106.6523 0001891  10.0407 349.9226  1.70474153 61844"}}, "geometry": {"type": "Point", "coordinates": [-64.52939315342141, -12.729624428262373]}}, {"type": "Feature", "properties": {"norad_id": 41549, "name": "GSAT0211 (GALILEO 14)", "group": "galileo", "lat": 45.67442634817114, "lon": 1.663454770727843, "alt_km": 23220.56138425398, "timestamp": "2025-12-03T15:48:03.335327+00:00", "meta": {"OBJECT_NAME": "GSAT0211 (GALILEO 14)", "OBJECT_ID": "2016-030A", "EPOCH": "2025-12-01T16:54:04.942368", "MEAN_MOTION": 1.70472896, "ECCENTRICITY": 0.00038995, "INCLINATION": 55.1563, "RA_OF_ASC_NODE": 227.1275, "ARG_OF_PERICENTER": 10.5053, "MEAN_ANOMALY": 349.5828, "EPHEMERIS_TYPE": 0, "CLASSIFICATION_TYPE": "U", "NORAD_CAT_ID": 41549, "ELEMENT_SET_NO": 999, "REV_AT_EPOCH": 5930, "BSTAR": 0, "MEAN_MOTION_DOT": 3.3e-07, "MEAN_MOTION_DDOT": 0}, "tle": {"line1": "1 41549U 16030A   25335.70422387  .00000033  00000+0  00000+0 0  9998", "line2": "2 41549  55.1563 227.1275 0003899  10.5053 349.5828  1.70472896 59309"}}, "geometry": {"type": "Point", "coordinates": [1.663454770727843, 45.67442634817114]}}, {"type": "Feature", "properties": {"norad_id": 41550, "name": "GSAT0210 (GALILEO 13)", "group": "galileo", "lat": -30.879458421409513, "lon": -157.50703247759694, "alt_km": 23225.518970347945, "timestamp": "2025-12-03T15:48:03.335337+00:00", "meta": {"OBJECT_NAME": "GSAT0210 (GALILEO 13)", "OBJECT_ID": "2016-030B", "EPOCH": "2025-12-01T09:00:06.320160", "MEAN_MOTION": 1.70473417, "ECCENTRICITY": 0.00012162, "INCLINATION": 55.1557, "RA_OF_ASC_NODE": 227.1346, "ARG_OF_PERICENTER": 241.6156, "MEAN_ANOMALY": 118.4503, "EPHEMERIS_TYPE": 0, "CLASSIFICATION_TYPE": "U", "NORAD_CAT_ID": 41550, "ELEMENT_SET_NO": 999, "REV_AT_EPOCH": 5929, "BSTAR": 0, "MEAN_MOTION_DOT": 3.2e-07, "MEAN_MOTION_DDOT": 0}, "tle": {"line1": "1 41550U 16030B   25335.37507315  .00000032  00000+0  00000+0 0  9997", "line2": "2 41550  55.1557 227.1346 0001216 241.6156 118.4503  1.70473417 59296"}}, "geometry": {"type": "Point", "coordinates": [-157.50703247759694, -30.879458421409513]}}, {"type": "Feature", "properties": {"norad_id": 41859, "name": "GSAT0207 (GALILEO 15)", "group": "galileo", "lat": 23.867550962897027, "lon": -91.30859831038748, "alt_km": 23225.361031278975, "timestamp": "2025-12-03T15:48:03.335347+00:00", "meta": {"OBJECT_NAME": "GSAT0207 (GALILEO 15)", "OBJECT_ID": "2016-069A", "EPOCH": "2025-11-30T11:31:32.297952", "MEAN_MOTION": 1.70474248, "ECCENTRICITY": 0.00020596, "INCLINATION": 55.375, "RA_OF_ASC_NODE": 106.5899, "ARG_OF_PERICENTER": 325.7449, "MEAN_ANOMALY": 34.2162, "EPHEMERIS_TYPE": 0, "CLASSIFICATION_TYPE": "U", "NORAD_CAT_ID": 41859, "ELEMENT_SET_NO": 999, "REV_AT_EPOCH": 5601, "BSTAR": 0, "MEAN_MOTION_DOT": 4.7e-07, "MEAN_MOTION_DDOT": 0}, "tle": {"line1": "1 41859U 16069A   25334.48023493  .00000047  00000+0  00000+0 0  9998", "line2": "2 41859  55.3750 106.5899 0002059 325.7449  34.2162  1.70474248 56019"}}, "geometry": {"type": "Point", "coordinates": [-91.30859831038748, 23.867550962897027]}}, {"type": "Feature", "properties": {"norad_id": 41860, "name": "GSAT0212 (GALILEO 16)", "group": "galileo", "lat": -45.65891537659533, "lon": -28.56090133514835, "alt_km": 23233.33096119224, "timestamp": "2025-12-03T15:48:03.335357+00:00", "meta": {"OBJECT_NAME": "GSAT0212 (GALILEO 16)", "OBJECT_ID": "2016-069B", "EPOCH": "2025-12-02T16:19:30.905184", "MEAN_MOTION": 1.70474418, "ECCENTRICITY": 0.00022458, "INCLINATION": 55.3738, "RA_OF_ASC_NODE": 106.5243, "ARG_OF_PERICENTER": 34.2432, "MEAN_ANOMALY": 325.7313, "EPHEMERIS_TYPE": 0, "CLASSIFICATION_TYPE": "U", "NORAD_CAT_ID": 41860, "ELEMENT_SET_NO": 999, "REV_AT_EPOCH": 5630, "BSTAR": 0, "MEAN_MOTION_DOT": 2.7e-07, "MEAN_MOTION_DDOT": 0}, "tle": {"line1": "1 41860U 16069B   25336.68021881  .00000027  00000+0  00000+0 0  9991", "line2": "2 41860  55.3738 106.5243 0002245  34.2432 325.7313  1.70474418 56308"}}, "geometry": {"type": "Point", "coordinates": [-28.56090133514835, -45.65891537659533]}}, {"type": "Feature", "properties": {"norad_id": 41861, "name": "GSAT0213 (GALILEO 17)", "group": "galileo", "lat": 12.079958845653554, "lon": 114.98250978429986, "alt_km": 23220.838988321124, "timestamp": "2025-12-03T15:48:03.335368+00:00", "meta": {"OBJECT_NAME": "GSAT0213 (GALILEO 17)", "OBJECT_ID": "2016-069C", "EPOCH": "2025-12-01T20:59:28.954752", "MEAN_MOTION": 1.70474717, "ECCENTRICITY": 0.00020626, "INCLINATION": 55.3756, "RA_OF_ASC_NODE": 106.5542, "ARG_OF_PERICENTER": 284.0381, "MEAN_ANOMALY": 75.9044, "EPHEMERIS_TYPE": 0, "CLASSIFICATION_TYPE": "U", "NORAD_CAT_ID": 41861, "ELEMENT_SET_NO": 999, "REV_AT_EPOCH": 5615, "BSTAR": 0, "MEAN_MOTION_DOT": 3.5e-07, "MEAN_MOTION_DDOT": 0}, "tle": {"line1": "1 41861U 16069C   25335.87464068  .00000035  00000+0  00000+0 0  9999", "line2": "2 41861  55.3756 106.5542 0002062 284.0381  75.9044  1.70474717 56156"}}, "geometry": {"type": "Point", "coordinates": [114.98250978429986, 12.079958845653554]}}, {"type": "Feature", "properties": {"norad_id": 41862, "name": "GSAT0214 (GALILEO 18)", "group": "galileo", "lat": -52.59114697440278, "lon": 41.93237425167619, "alt_km": 23224.603710964482, "timestamp": "2025-12-03T15:48:03.335377+00:00", "meta": {"OBJECT_NAME": "GSAT0214 (GALILEO 18)", "OBJECT_ID": "2016-069D", "EPOCH": "2025-12-02T14:34:22.700352", "MEAN_MOTION": 1.70474512, "ECCENTRICITY": 0.0001109, "INCLINATION": 55.3745, "RA_OF_ASC_NODE": 106.5268, "ARG_OF_PERICENTER": 291.2976, "MEAN_ANOMALY": 68.6511, "EPHEMERIS_TYPE": 0, "CLASSIFICATION_TYPE": "U", "NORAD_CAT_ID": 41862, "ELEMENT_SET_NO": 999, "REV_AT_EPOCH": 5629, "BSTAR": 0, "MEAN_MOTION_DOT": 2.8e-07, "MEAN_MOTION_DDOT": 0}, "tle": {"line1": "1 41862U 16069D   25336.60720718  .00000028  00000+0  00000+0 0  9991", "line2": "2 41862  55.3745 106.5268 0001109 291.2976  68.6511  1.70474512 56297"}}, "geometry": {"type": "Point", "coordinates": [41.93237425167619, -52.59114697440278]}}, {"type": "Feature", "properties": {"norad_id": 43055, "name": "GSAT0215 (GALILEO 19)", "group": "galileo", "lat": -12.82389401574299, "lon": -142.22738031228064, "alt_km": 23220.197535004387, "timestamp": "2025-12-03T15:48:03.335388+00:00", "meta": {"OBJECT_NAME": "GSAT0215 (GALILEO 19)", "OBJECT_ID": "2017-079A", "EPOCH": "2025-11-29T13:52:03.216864", "MEAN_MOTION": 1.70473718, "ECCENTRICITY": 0.0001588, "INCLINATION": 55.1353, "RA_OF_ASC_NODE": 227.0004, "ARG_OF_PERICENTER": 310.5234, "MEAN_ANOMALY": 49.536, "EPHEMERIS_TYPE": 0, "CLASSIFICATION_TYPE": "U", "NORAD_CAT_ID": 43055, "ELEMENT_SET_NO": 999, "REV_AT_EPOCH": 4958, "BSTAR": 0, "MEAN_MOTION_DOT": 2.7e-07, "MEAN_MOTION_DDOT": 0}, "tle": {"line1": "1 43055U 17079A   25333.57781501  .00000027  00000+0  00000+0 0  9998", "line2": "2 43055  55.1353 227.0004 0001588 310.5234  49.5360  1.70473718 49587"}}, "geometry": {"type": "Point", "coordinates": [-142.22738031228064, -12.82389401574299]}}, {"type": "Feature", "properties": {"norad_id": 43056, "name": "GSAT0216 (GALILEO 20)", "group": "galileo", "lat": 11.825516001972021, "lon": 38.5094435220122, "alt_km": 23227.641191258546, "timestamp": "2025-12-03T15:48:03.335398+00:00", "meta": {"OBJECT_NAME": "GSAT0216 (GALILEO 20)", "OBJECT_ID": "2017-079B", "EPOCH": "2025-12-01T01:00:54.249120", "MEAN_MOTION": 1.70473856, "ECCENTRICITY": 0.00027137, "INCLINATION": 55.1346, "RA_OF_ASC_NODE": 226.9601, "ARG_OF_PERICENTER": 312.5245, "MEAN_ANOMALY": 47.5297, "EPHEMERIS_TYPE": 0, "CLASSIFICATION_TYPE": "U", "NORAD_CAT_ID": 43056, "ELEMENT_SET_NO": 999, "REV_AT_EPOCH": 4962, "BSTAR": 0, "MEAN_MOTION_DOT": 3.1e-07, "MEAN_MOTION_DDOT": 0}, "tle": {"line1": "1 43056U 17079B   25335.04229455  .00000031  00000+0  00000+0 0  9993", "line2": "2 43056  55.1346 226.9601 0002713 312.5245  47.5297  1.70473856 49621"}}, "geometry": {"type": "Point", "coordinates": [38.5094435220122, 11.825516001972021]}}, {"type": "Feature", "properties": {"norad_id": 43057, "name": "GSAT0217 (GALILEO 21)", "group": "galileo", "lat": 24.285823140676634, "lon": -114.80041618404995, "alt_km": 23213.00643279444, "timestamp": "2025-12-03T15:48:03.335408+00:00", "meta": {"OBJECT_NAME": "GSAT0217 (GALILEO 21)", "OBJECT_ID": "2017-079C", "EPOCH": "2025-12-02T10:28:08.868000", "MEAN_MOTION": 1.70473685, "ECCENTRICITY": 0.00026117, "INCLINATION": 55.1312, "RA_OF_ASC_NODE": 226.9197, "ARG_OF_PERICENTER": 354.1722, "MEAN_ANOMALY": 5.9091, "EPHEMERIS_TYPE": 0, "CLASSIFICATION_TYPE": "U", "NORAD_CAT_ID": 43057, "ELEMENT_SET_NO": 999, "REV_AT_EPOCH": 4963, "BSTAR": 0, "MEAN_MOTION_DOT": 3.7e-07, "MEAN_MOTION_DDOT": 0}, "tle": {"line1": "1 43057U 17079C   25336.43621375  .00000037  00000+0  00000+0 0  9991", "line2": "2 43057  55.1312 226.9197 0002611 354.1722   5.9091  1.70473685 49635"}}, "geometry": {"type": "Point", "coordinates": [-114.80041618404995, 24.285823140676634]}}]}